{"type": "FeatureCollection", "features": [ {"type": "Feature", "properties": {"norad_id": 29906, "name": "FENGYUN 1C DEB", "group": "fengyun-1c-debris", "lat": 35.103861232609766, "lon": 93.15446887146726, "alt_km": 722.6822397886017, "timestamp": "2025-12-21T16:47:55.010436+00:00", "meta": {"OBJECT_NAME": "FENGYUN 1C DEB", "OBJECT_ID": "1999-025HC", "EPOCH": "2025-12-21T06:41:46.970304", "MEAN_MOTION": 14.49769883, "ECCENTRICITY": 0.0036546, "INCLINATION": 98.7064, "RA_OF_ASC_NODE": 98.9033, "ARG_OF_PERICENTER": 124.2089, "MEAN_ANOMALY": 236.2576, "EPHEMERIS_TYPE": 0, "CLASSIFICATION_TYPE": "U", "NORAD_CAT_ID": 29906, "ELEMENT_SET_NO": 999, "REV_AT_EPOCH": 98281, "BSTAR": 0.0015952, "MEAN_MOTION_DOT": 6.156e-05, "MEAN_MOTION_DDOT": 0}, "tle": {"line1": "1 29906U 99025HC  25355.27901586  .00006156  00000+0  15952-2 0  9990", "line2": "2 29906  98.7064  98.9033 0036546 124.2089 236.2576 14.49769883982812"}}, "geometry": {"type": "Point", "coordinates": [93.15446887146726, 35.103861232609766]}}, {"type": "Feature", "properties": {"norad_id": 29907, "name": "FENGYUN 1C DEB", "group": "fengyun-1c-debris", "lat": 35.7475600423529, "lon": 55.87954538170877, "alt_km": 911.6604153681619, "timestamp": "2025-12-21T16:47:55.010446+00:00", "meta": {"OBJECT_NAME": "FENGYUN 1C DEB", "OBJECT_ID": "1999-025HD", "EPOCH": "2025-12-21T11:36:10.384128", "MEAN_MOTION": 14.11681771, "ECCENTRICITY": 0.0084601, "INCLINATION": 99.111, "RA_OF_ASC_NODE": 62.293, "ARG_OF_PERICENTER": 225.1477, "MEAN_ANOMALY": 151.4786, "EPHEMERIS_TYPE": 0, "CLASSIFICATION_TYPE": "U", "NORAD_CAT_ID": 29907, "ELEMENT_SET_NO": 999, "REV_AT_EPOCH": 96722, "BSTAR": 0.0015251, "MEAN_MOTION_DOT": 2.825e-05, "MEAN_MOTION_DDOT": 0}, "tle": {"line1": "1 29907U 99025HD  25355.48345352  .00002825  00000+0  15251-2 0  9998", "line2": "2 29907  99.1110  62.2930 0084601 225.1477 151.4786 14.11681771967224"}}, "geometry": {"type": "Point", "coordinates": [55.87954538170877, 35.7475600423529]}}, {"type": "Feature", "properties": {"norad_id": 29909, "name": "FENGYUN 1C DEB", "group": "fengyun-1c-debris", "lat": -70.01910820764233, "lon": 124.50237939701854, "alt_km": 701.7212126536397, "timestamp": "2025-12-21T16:47:55.010455+00:00", "meta": {"OBJECT_NAME": "FENGYUN 1C DEB", "OBJECT_ID": "1999-025HF", "EPOCH": "2025-12-21T12:26:57.077952", "MEAN_MOTION": 14.55252695, "ECCENTRICITY": 0.0038107, "INCLINATION": 98.6344, "RA_OF_ASC_NODE": 99.6123, "ARG_OF_PERICENTER": 347.4628, "MEAN_ANOMALY": 72.1627, "EPHEMERIS_TYPE": 0, "CLASSIFICATION_TYPE": "U", "NORAD_CAT_ID": 29909, "ELEMENT_SET_NO": 999, "REV_AT_EPOCH": 98533, "BSTAR": 0.0014564, "MEAN_MOTION_DOT": 6.322e-05, "MEAN_MOTION_DDOT": 0}, "tle": {"line1": "1 29909U 99025HF  25355.51871618  .00006322  00000+0  14564-2 0  9995", "line2": "2 29909  98.6344  99.6123 0038107 347.4628  72.1627 14.55252695985335"}}, "geometry": {"type": "Point", "coordinates": [124.50237939701854, -70.01910820764233]}}, {"type": "Feature", "properties": {"norad_id": 29911, "name": "FENGYUN 1C DEB", "group": "fengyun-1c-debris", "lat": -16.29690733624007, "lon": 41.229734673592, "alt_km": 849.5891065992537, "timestamp": "2025-12-21T16:47:55.010465+00:00", "meta": {"OBJECT_NAME": "FENGYUN 1C DEB", "OBJECT_ID": "1999-025HH", "EPOCH": "2025-12-21T01:55:57.200160", "MEAN_MOTION": 14.1887702, "ECCENTRICITY": 0.0027436, "INCLINATION": 98.7147, "RA_OF_ASC_NODE": 38.0508, "ARG_OF_PERICENTER": 127.8915, "MEAN_ANOMALY": 293.7361, "EPHEMERIS_TYPE": 0, "CLASSIFICATION_TYPE": "U", "NORAD_CAT_ID": 29911, "ELEMENT_SET_NO": 999, "REV_AT_EPOCH": 97549, "BSTAR": 0.00051509204, "MEAN_MOTION_DOT": 1.033e-05, "MEAN_MOTION_DDOT": 0}, "tle": {"line1": "1 29911U 99025HH  25355.08052315  .00001033  00000+0  51509-3 0  9990", "line2": "2 29911  98.7147  38.0508 0027436 127.8915 293.7361 14.18877020975492"}}, "geometry": {"type": "Point", "coordinates": [41.229734673592, -16.29690733624007]}}, {"type": "Feature", "properties": {"norad_id": 29912, "name": "FENGYUN 1C DEB", "group": "fengyun-1c-debris", "lat": 0.2584036590006155, "lon": 93.33491018413733, "alt_km": 781.300462937641, "timestamp": "2025-12-21T16:47:55.010475+00:00", "meta": {"OBJECT_NAME": "FENGYUN 1C DEB", "OBJECT_ID": "1999-025HJ", "EPOCH": "2025-12-20T05:58:41.998944", "MEAN_MOTION": 14.43076298, "ECCENTRICITY": 0.0043248, "INCLINATION": 98.7395, "RA_OF_ASC_NODE": 91.8872, "ARG_OF_PERICENTER": 197.2415, "MEAN_ANOMALY": 190.0813, "EPHEMERIS_TYPE": 0, "CLASSIFICATION_TYPE": "U", "NORAD_CAT_ID": 29912, "ELEMENT_SET_NO": 999, "REV_AT_EPOCH": 98147, "BSTAR": 0.0014256, "MEAN_MOTION_DOT": 4.791e-05, "MEAN_MOTION_DDOT": 0}, "tle": {"line1": "1 29912U 99025HJ  25354.24909721  .00004791  00000+0  14256-2 0  9991", "line2": "2 29912  98.7395  91.8872 0043248 197.2415 190.0813 14.43076298981476"}}, "geometry": {"type": "Point", "coordinates": [93.33491018413733, 0.2584036590006155]}}, {"type": "Feature", "properties": {"norad_id": 29913, "name": "FENGYUN 1C DEB", "group": "fengyun-1c-debris", "lat": 41.12218403866002, "lon": -13.456185619279935, "alt_km": 905.8641592980921, "timestamp": "2025-12-21T16:47:55.010486+00:00", "meta": {"OBJECT_NAME": "FENGYUN 1C DEB", "OBJECT_ID": "1999-025HK", "EPOCH": "2025-12-21T12:12:29.380032", "MEAN_MOTION": 14.0739232, "ECCENTRICITY": 0.0061866, "INCLINATION": 98.7879, "RA_OF_ASC_NODE": 354.1193, "ARG_OF_PERICENTER": 246.4119, "MEAN_ANOMALY": 266.5518, "EPHEMERIS_TYPE": 0, "CLASSIFICATION_TYPE": "U", "NORAD_CAT_ID": 29913, "ELEMENT_SET_NO": 999, "REV_AT_EPOCH": 97088, "BSTAR": 0.00022048, "MEAN_MOTION_DOT": 3.34e-06, "MEAN_MOTION_DDOT": 0}, "tle": {"line1": "1 29913U 99025HK  25355.50867338  .00000334  00000+0  22048-3 0  9997", "line2": "2 29913  98.7879 354.1193 0061866 246.4119 266.5518 14.07392320970880"}}, "geometry": {"type": "Point", "coordinates": [-13.456185619279935, 41.12218403866002]}}, {"type": "Feature", "properties": {"norad_id": 29914, "name": "FENGYUN 1C DEB", "group": "fengyun-1c-debris", "lat": 43.76289756530231, "lon": 15.449245757897716, "alt_km": 860.648829185745, "timestamp": "2025-12-21T16:47:55.010496+00:00", "meta": {"OBJECT_NAME": "FENGYUN 1C DEB", "OBJECT_ID": "1999-025HL", "EPOCH": "2025-12-21T01:29:14.680608", "MEAN_MOTION": 14.03132699, "ECCENTRICITY": 0.00367594, "INCLINATION": 98.8428, "RA_OF_ASC_NODE": 23.4036, "ARG_OF_PERICENTER": 92.3212, "MEAN_ANOMALY": 331.7193, "EPHEMERIS_TYPE": 0, "CLASSIFICATION_TYPE": "U", "NORAD_CAT_ID": 29914, "ELEMENT_SET_NO": 999, "REV_AT_EPOCH": 96903, "BSTAR": -5.0552515e-05, "MEAN_MOTION_DOT": -1.22e-06, "MEAN_MOTION_DDOT": 0}, "tle": {"line1": "1 29914U 99025HL  25355.06197547 -.00000122  00000+0 -50553-4 0  9997", "line2": "2 29914  98.8428  23.4036 0036759  92.3212 331.7193 14.03132699969035"}}, "geometry": {"type": "Point", "coordinates": [15.449245757897716, 43.76289756530231]}}, {"type": "Feature", "properties": {"norad_id": 29916, "name": "FENGYUN 1C DEB", "group": "fengyun-1c-debris", "lat": 1.4210701779441262, "lon": 14.139062362825307, "alt_km": 1164.0278211484128, "timestamp": "2025-12-21T16:47:55.010506+00:00", "meta": {"OBJECT_NAME": "FENGYUN 1C DEB", "OBJECT_ID": "1999-025HN", "EPOCH": "2025-12-21T06:51:27.198144", "MEAN_MOTION": 13.56993824, "ECCENTRICITY": 0.0271433, "INCLINATION": 99.1936, "RA_OF_ASC_NODE": 13.9818, "ARG_OF_PERICENTER": 236.6359, "MEAN_ANOMALY": 259.9345, "EPHEMERIS_TYPE": 0, "CLASSIFICATION_TYPE": "U", "NORAD_CAT_ID": 29916, "ELEMENT_SET_NO": 999, "REV_AT_EPOCH": 93568, "BSTAR": 0.00054366, "MEAN_MOTION_DOT": 4.48e-06, "MEAN_MOTION_DDOT": 0}, "tle": {"line1": "1 29916U 99025HN  25355.28573146  .00000448  00000+0  54366-3 0  9990", "line2": "2 29916  99.1936  13.9818 0271433 236.6359 259.9345 13.56993824935688"}}, "geometry": {"type": "Point", "coordinates": [14.139062362825307, 1.4210701779441262]}}, {"type": "Feature", "properties": {"norad_id": 29917, "name": "FENGYUN 1C DEB", "group": "fengyun-1c-debris", "lat": 15.239460692631953, "lon": 39.09823990704219, "alt_km": 923.1903896195618, "timestamp": "2025-12-21T16:47:55.010516+00:00", "meta": {"OBJECT_NAME": "FENGYUN 1C DEB", "OBJECT_ID": "1999-025HP", "EPOCH": "2025-12-21T09:50:41.985024", "MEAN_MOTION": 13.70432904, "ECCENTRICITY": 0.0223303, "INCLINATION": 98.8766, "RA_OF_ASC_NODE": 216.3905, "ARG_OF_PERICENTER": 101.3585, "MEAN_ANOMALY": 72.1684, "EPHEMERIS_TYPE": 0, "CLASSIFICATION_TYPE": "U", "NORAD_CAT_ID": 29917, "ELEMENT_SET_NO": 999, "REV_AT_EPOCH": 94249, "BSTAR": 0.0011822, "MEAN_MOTION_DOT": 1.209e-05, "MEAN_MOTION_DDOT": 0}, "tle": {"line1": "1 29917U 99025HP  25355.41020816  .00001209  00000+0  11822-2 0  9992", "line2": "2 29917  98.8766 216.3905 0223303 101.3585  72.1684 13.70432904942495"}}, "geometry": {"type": "Point", "coordinates": [39.09823990704219, 15.239460692631953]}}, {"type": "Feature", "properties": {"norad_id": 29918, "name": "FENGYUN 1C DEB", "group": "fengyun-1c-debris", "lat": -45.90600911025359, "lon": -110.91552755857973, "alt_km": 781.6713281005595, "timestamp": "2025-12-21T16:47:55.010526+00:00", "meta": {"OBJECT_NAME": "FENGYUN 1C DEB", "OBJECT_ID": "1999-025HQ", "EPOCH": "2025-12-21T12:26:48.972768", "MEAN_MOTION": 14.33661182, "ECCENTRICITY": 0.0013276, "INCLINATION": 98.8544, "RA_OF_ASC_NODE": 78.1576, "ARG_OF_PERICENTER": 288.4454, "MEAN_ANOMALY": 82.9324, "EPHEMERIS_TYPE": 0, "CLASSIFICATION_TYPE": "U", "NORAD_CAT_ID": 29918, "ELEMENT_SET_NO": 999, "REV_AT_EPOCH": 97920, "BSTAR": 0.0011277, "MEAN_MOTION_DOT": 3.085e-05, "MEAN_MOTION_DDOT": 0}, "tle": {"line1": "1 29918U 99025HQ  25355.51862237  .00003085  00000+0  11277-2 0  9993", "line2": "2 29918  98.8544  78.1576 0013276 288.4454  82.9324 14.33661182979207"}}, "geometry": {"type": "Point", "coordinates": [-110.91552755857973, -45.90600911025359]}}]}